[
    {
        "Altitude(m)": 605459.0253972298,
        "Argument of Periapsis(deg)": 0.0,
        "Eccentricity": 0.0,
        "Inclination(deg)": 60.0,
        "Latitude(deg)": 27.988202960032414,
        "Longitude(deg)": -157.20136407581566,
        "Mean Anomaly(deg)": 32.72730000000001,
        "RAAN(deg)": 285.0,
        "Satellite Name": "Test1 1256",
        "Satellite Number": 1256,
        "Semi-Major Axis(m)": 6980739.136638005,
        "Time(s)": 0
    },
    {
        "Altitude(m)": 605535.8161871505,
        "Argument of Periapsis(deg)": 0.00010418945913296404,
        "Eccentricity": 0.0,
        "Inclination(deg)": 60.0,
        "Latitude(deg)": 28.50133186500091,
        "Longitude(deg)": -156.84441792558573,
        "Mean Anomaly(deg)": 33.34740614546182,
        "RAAN(deg)": 284.9995799508602,
        "Satellite Name": "Test1 1256",
        "Satellite Number": 1256,
        "Semi-Major Axis(m)": 6980739.136638005,
        "Time(s)": 10
    }
]